CALSPHERE 1             
1 00900U 64063C   23157.96050150  .00000722  00000+0  75363-3 0  9999
2 00900  90.1905  47.6573 0028785  37.9050  21.0852 13.74334899919346
CALSPHERE 2             
1 00902U 64063E   23157.76491108  .00000049  00000+0  60400-4 0  9990
2 00902  90.2059  50.9894 0017749 193.4337 235.9523 13.52752057706673
LCS 1                   
1 01361U 65034C   23157.65341204  .00000026  00000+0  22721-2 0  9995
2 01361  32.1427 284.3141 0007862  58.4358 301.6906  9.89303106100309
TEMPSAT 1               
1 01512U 65065E   23157.85955368  .00000041  00000+0  63206-4 0  9993
2 01512  89.9344 216.0649 0071850 114.7570 298.1779 13.33479252812601
CALSPHERE 4A            
1 01520U 65065H   23157.91378921  .00000105  00000+0  18579-3 0  9996
2 01520  89.9690 129.5584 0068673 346.1263  45.4045 13.35967566814983
OPS 5712 (P/L 160)      
1 02826U 67053A   23157.87194179  .00004002  00000+0  96709-3 0  9992
2 02826  69.9256 175.9588 0007328 227.8084 132.2430 14.53790308904177
LES-5                   
1 02866U 67066E   23157.51667564 -.00000101  00000+0  00000+0 0  9996
2 02866   0.8004 198.9709 0051892  91.5598  42.6739  1.09426154118925
SURCAL 159              
1 02872U 67053F   23157.63434009  .00000093  00000+0  10118-3 0  9992
2 02872  69.9743 222.5382 0004603 135.6578 224.4899 13.99035434855402
OPS 5712 (P/L 153)      
1 02874U 67053H   23157.77562113  .00000046  00000+0  71820-4 0  9993
2 02874  69.9740 326.1689 0008385 209.6324 150.4307 13.96482504852291
SURCAL 150B             
1 02909U 67053J   23157.88581164  .00008781  00000+0  14858-2 0  9991
2 02909  69.9440 146.8195 0006312 247.4481 112.5996 14.69592777915566
OPS 3811 (DSP 2)        
1 05204U 71039A   23157.78875716 -.00000164  00000+0  00000+0 0  9998
2 05204   2.6383 284.7917 0017229 351.5665  82.3695  0.98161543195370
RIGIDSPHERE 2 (LCS 4)   
1 05398U 71067E   23157.84364413  .00000772  00000+0  26056-3 0  9994
2 05398  87.6187 285.1239 0060361 296.6023  62.8997 14.34839938715060
OSCAR 7 (AO-7)          
1 07530U 74089B   23157.82541848 -.00000047  00000+0 -44396-5 0  9994
2 07530 101.9464 144.4326 0012655  83.5425  34.8719 12.53664577221870
STARLETTE               
1 07646U 75010A   23157.93045410 -.00000151  00000+0 -55356-5 0  9997
2 07646  49.8217 151.1002 0205614   8.5392 351.8916 13.82319032441511
LAGEOS 1                
1 08820U 76039A   23157.86013608  .00000014  00000+0  00000+0 0  9996
2 08820 109.8074 160.4008 0044978 179.7899  54.8176  6.38664615842482
OPS 8701 (DSP 10)       
1 13086U 82019A   23157.54744480 -.00000032  00000+0  00000+0 0  9996
2 13086  11.5388 317.8040 0003072 191.2003 350.7772  0.98187969 14796
PHASE 3B (AO-10)        
1 14129U 83058B   23152.81086014 -.00000169  00000+0  00000+0 0  9997
2 14129  27.2046  39.2311 6034442 176.8094 190.1687  2.05868850272608
UOSAT 2 (UO-11)         
1 14781U 84021B   23157.47798301  .00001376  00000+0  16780-3 0  9994
2 14781  97.6567 134.8239 0006819 230.1369 129.9247 14.84871802 92559
AJISAI (EGS)            
1 16908U 86061A   23157.92493067 -.00000078  00000+0  13539-3 0  9992
2 16908  50.0103 309.0827 0011201 243.7038 290.9930 12.44500511342639
TDRS 3                  
1 19548U 88091B   23157.37549479 -.00000297  00000+0  00000+0 0  9996
2 19548  13.4528 348.6290 0034605 339.3512  12.9254  1.00270506114288
COSMOS 1989 (ETALON 1)  
1 19751U 89001C   23157.86472876  .00000037  00000+0  00000+0 0  9995
2 19751  64.4074 110.1890 0024002 214.7250  42.2689  2.13156132267784
COSMOS 2024 (ETALON 2)  
1 20026U 89039C   23157.84572014 -.00000043  00000+0  00000+0 0  9994
2 20026  65.4734 348.3632 0018746 218.0688 353.4149  2.13204276264917
FLTSATCOM 8 (USA 46)    
1 20253U 89077A   23143.14411640 -.00000081  00000+0  00000+0 0  9995
2 20253  12.7587 358.0109 0006592 110.1214 256.0976  1.00273579249376
LUSAT (LO-19)           
1 20442U 90005G   23157.76912842  .00000162  00000+0  75518-4 0  9991
2 20442  98.8431 134.0626 0011177 204.3288 155.7369 14.33259246743855
HST                     
1 20580U 90037B   23157.85354507  .00004337  00000+0  22778-3 0  9994
2 20580  28.4708 336.7611 0002116 269.7013 223.7413 15.13196782619899
SKYNET 4C               
1 20776U 90079A   23157.69918705  .00000126  00000+0  00000+0 0  9997
2 20776  13.6976 357.4515 0003098  87.8253  94.6595  1.00271616119798
USA 65 (DSP 15)         
1 20929U 90095A   23157.65202154 -.00000073  00000+0  00000+0 0  9997
2 20929  14.6948 351.8974 0009230  87.0453 263.9600  0.98396859 14574
TDRS 5                  
1 21639U 91054B   23157.79119779  .00000084  00000+0  00000+0 0  9998
2 21639  14.2069   1.9199 0026426   1.9399   8.3003  1.00276582116626
USA 75 (DSP 16)         
1 21805U 91080B   23157.24285538 -.00000105  00000+0  00000+0 0  9994
2 21805  14.6035 353.5604 0009500  89.3026 272.7052  0.99188228 14732
LAGEOS 2                
1 22195U 92070B   23157.62325024 -.00000009  00000+0  00000+0 0  9997
2 22195  52.6477 245.9822 0138815  63.4825   3.2467  6.47293902723789
TDRS 6                  
1 22314U 93003B   23157.33932900 -.00000294  00000+0  00000+0 0  9998
2 22314  14.1500   5.1995 0011551 131.0202 194.6189  1.00273118111303
SCD 1                   
1 22490U 93009B   23157.52082691  .00000472  00000+0  80428-4 0  9997
2 22490  24.9680 194.4452 0042513 315.6358 197.9345 14.44932630600812
UFO 2 (USA 95)          
1 22787U 93056A   23157.75863705  .00000126  00000+0  00000+0 0  9995
2 22787  11.5541   9.2961 0003088  63.9660 123.4989  1.00276484107456
STELLA                  
1 22824U 93061B   23157.89402955 -.00000031  00000+0  61367-5 0  9999
2 22824  98.9287 192.1689 0005943 200.5049 286.2569 14.27405180546948
EYESAT A (AO-27)        
1 22825U 93061C   23157.64488311  .00000135  00000+0  69567-4 0  9996
2 22825  98.8414 200.3651 0009591  98.3283 261.8987 14.30305798548782
ITAMSAT (IO-26)         
1 22826U 93061D   23157.86078330  .00000160  00000+0  78538-4 0  9993
2 22826  98.8359 200.4479 0010117  85.3170 274.9167 14.30666695549082
USA 99 (MILSTAR-1 1)    
1 22988U 94009A   23157.21195142 -.00000198  00000+0  00000+0 0  9991
2 22988  15.9152  39.4000 0002531  36.9006 164.3887  1.00271009 21869
RADIO ROSTO (RS-15)     
1 23439U 94085A   23157.89119801 -.00000034  00000+0  24701-3 0  9996
2 23439  64.8173 292.3375 0162630 212.0257 147.0702 11.27574325171164
UFO 4 (USA 108)         
1 23467U 95003A   23157.79841130 -.00000021  00000+0  00000+0 0  9992
2 23467   9.8001  16.6599 0004934  81.7337 256.2595  1.00272435103852
AMSC 1                  
1 23553U 95019A   23157.65977921 -.00000094  00000+0  00000+0 0  9998
2 23553  12.2764  23.8789 0005206  45.5918 315.3426  1.00272679103084
TDRS 7                  
1 23613U 95035B   23157.68260771 -.00000203  00000+0  00000+0 0  9996
2 23613  13.8383 355.9272 0029849  62.2490 167.2454  1.00274742102156
USA 115 (MILSTAR-1 2)   
1 23712U 95060A   23157.65733860 -.00000019  00000+0  00000+0 0  9990
2 23712  13.6606  11.7188 0001472  74.6265 285.0909  1.00270496 21789
POLAR                   
1 23802U 96013A   23157.29207466  .00000246  00000+0  00000+0 0  9998
2 23802  78.8920 238.2079 5767153 246.7125  44.3622  1.29847396130489
INMARSAT 3-F1           
1 23839U 96020A   23157.20083880 -.00000284  00000+0  00000+0 0  9992
2 23839   8.2747  55.7319 0007610  38.9145 181.3672  0.99992919 99181
JAS-2 (FO-29)           
1 24278U 96046B   23157.76513553 -.00000006  00000+0  26858-4 0  9990
2 24278  98.5277 137.7411 0351330  83.9448 280.1602 13.53145511323521
INMARSAT 3-F2           
1 24307U 96053A   23157.50368808  .00000059  00000+0  00000+0 0  9997
2 24307   7.3237  64.2028 0010079  18.5254 181.8211  1.00000231 97885
AMC-1 (GE-1)            
1 24315U 96054A   23157.58774622  .00000107  00000+0  00000+0 0  9994
2 24315   6.4589  70.0417 0011354 107.3507 155.7136  0.99884256 35226
INMARSAT 3-F3           
1 24674U 96070A   23157.76230115 -.00000030  00000+0  00000+0 0  9990
2 24674   7.9013  59.2059 0006374  28.1274 157.0041  0.99978451 96846
GALAXY 25 (G-25)        
1 24812U 97026A   23157.17595203 -.00000221  00000+0  00000+0 0  9995
2 24812   4.5799  80.0875 0013185 358.2250 222.0989  0.99038419 95250
NAVSTAR 43 (USA 132)    
1 24876U 97035A   23157.85218667  .00000066  00000+0  00000+0 0  9992
2 24876  55.5721 141.8393 0068340  50.8105 309.7740  2.00563948189761
INTELSAT 5 (IS-5)       
1 24916U 97046A   23157.64198760 -.00000061  00000+0  00000+0 0  9993
2 24916   7.9875  58.4910 0002036  27.4876 206.0487  1.00273055 94522
FORTE                   
1 24920U 97047A   23157.74244536  .00000205  00000+0  10797-3 0  9990
2 24920  69.9544 350.9459 0023244 339.2565  20.7611 14.26790535340791
AMC-3 (GE-3)            
1 24936U 97050A   23157.81028687 -.00000257  00000+0  00000+0 0  9996
2 24936   5.4158  76.0603 0003042 354.0858  44.5060  1.00270207 41343
USA 134                 
1 25019U 97065A   23157.17340970 -.00000058  00000+0  00000+0 0  9995
2 25019  11.4639  29.2855 0004737  28.5667 146.4817  1.00272692 21855
NAVSTAR 44 (USA 135)    
1 25030U 97067A   23154.95352980  .00000089  00000+0  00000+0 0  9990
2 25030  55.6423 210.7541 0020466 250.4692 111.1444  1.88437819185798
ASTRA 1G                
1 25071U 97076A   23157.39355052  .00000118  00000+0  00000+0 0  9992
2 25071   7.0584  65.4688 0004711   8.8260 341.3242  1.00270085 93403
ORBCOMM FM11            
1 25114U 97084C   23157.85144914  .00001444  00000+0  49188-3 0  9990
2 25114  45.0159 312.2375 0005747  89.0337 271.1171 14.40725703334413
ORBCOMM FM06            
1 25118U 97084G   23157.88299118  .00001718  00000+0  57446-3 0  9994
2 25118  45.0166 311.6638 0002421 138.4114 350.2295 14.40935902334430
INMARSAT 3-F5           
1 25153U 98006B   23157.17957809 -.00000285  00000+0  00000+0 0  9997
2 25153   7.1927  63.2032 0005174   6.9332 194.8275  1.00273523 92796
